NORAD_CAT_ID,OBJECT_NAME,OBJECT_TYPE,EPOCH,MEAN_MOTION,ECCENTRICITY,INCLINATION,RA_OF_ASC_NODE,ARG_OF_PERICENTER,MEAN_ANOMALY,BSTAR,MEAN_MOTION_DOT,MEAN_MOTION_DDOT,TLE_LINE0,TLE_LINE1,TLE_LINE2,SEMIMAJOR_AXIS,PERIOD,APOGEE,PERIGEE,DECAYED
52987.0,STARLINK-4259,PAYLOAD,2024-06-06 21:04:48,15.08833819,0.0002227,53.2175,100.8373,99.0199,261.1045,3.7914e-05,3.15e-06,0.0,0 STARLINK-4259,1 52987U 22076B   24158.87833466  .00000315  00000-0  37914-4 0  9990,2 52987  53.2175 100.8373 0002227  99.0199 261.1045 15.08833819106437,6917.899,95.438,541.305,538.224,0.0
52987.0,STARLINK-4259,PAYLOAD,2024-06-08 04:52:30,15.08843213,0.0001714,53.2192,94.8881,83.1555,276.9632,0.00019961,2.89e-05,0.0,0 STARLINK-4259,1 52987U 22076B   24160.20313331  .00002890  00000-0  19961-3 0  9995,2 52987  53.2192  94.8881 0001714  83.1555 276.9632 15.08843213106639,6917.871,95.437,540.921,538.55,0.0
52987.0,STARLINK-4259,PAYLOAD,2024-06-08 12:49:25,15.08851447,0.0001354,53.2178,93.4015,89.8492,270.2655,0.00017259,2.461e-05,0.0,0 STARLINK-4259,1 52987U 22076B   24160.53432651  .00002461  00000-0  17259-3 0  9990,2 52987  53.2178  93.4015 0001354  89.8492 270.2655 15.08851447106214,6917.845,95.437,540.647,538.774,0.0
52987.0,STARLINK-4259,PAYLOAD,2024-06-09 03:07:55,15.08831665,0.0001334,53.2179,90.7268,98.2775,261.8368,-5.4181e-05,-1.15e-05,0.0,0 STARLINK-4259,1 52987U 22076B   24161.13050160 -.00001150  00000-0 -54181-4 0  9990,2 52987  53.2179  90.7268 0001334  98.2775 261.8368 15.08831665106779,6917.906,95.438,540.694,538.848,0.0
52987.0,STARLINK-4259,PAYLOAD,2024-06-09 19:01:46,15.08836648,0.0001339,53.2173,87.7517,99.3632,260.7511,0.00014339,1.995e-05,0.0,0 STARLINK-4259,1 52987U 22076B   24161.79290320  .00001995  00000-0  14339-3 0  9991,2 52987  53.2173  87.7517 0001339  99.3632 260.7511 15.08836648106409,6917.891,95.438,540.682,538.829,0.0
52987.0,STARLINK-4259,PAYLOAD,2024-06-10 01:23:19,15.08842947,0.0001387,53.2173,86.5643,100.1456,259.9692,0.00031663,4.755e-05,0.0,0 STARLINK-4259,1 52987U 22076B   24162.05786263  .00004755  00000-0  31663-3 0  9993,2 52987  53.2173  86.5643 0001387 100.1456 259.9692 15.08842947106919,6917.871,95.437,540.696,538.777,0.0
52987.0,STARLINK-4259,PAYLOAD,2024-06-10 12:31:01,15.08850606,0.0001352,53.2169,84.4821,107.4607,252.6533,0.0006075,9.396e-05,0.0,0 STARLINK-4259,1 52987U 22076B   24162.52154158  .00009396  00000-0  60750-3 0  9992,2 52987  53.2169  84.4821 0001352 107.4607 252.6533 15.08850606106510,6917.848,95.437,540.648,538.778,0.0
52987.0,STARLINK-4259,PAYLOAD,2024-06-10 22:03:20,15.08847761,0.0001833,53.2193,82.6974,114.9804,245.1379,0.00033627,5.069e-05,0.0,0 STARLINK-4259,1 52987U 22076B   24162.91898259  .00005069  00000-0  33627-3 0  9998,2 52987  53.2193  82.6974 0001833 114.9804 245.1379 15.08847761106571,6917.857,95.437,540.99,538.454,0.0
52987.0,STARLINK-4259,PAYLOAD,2024-06-11 04:24:52,15.08850419,0.0001469,53.2185,81.5093,102.678,257.4377,0.00038209,5.8e-05,0.0,0 STARLINK-4259,1 52987U 22076B   24163.18394143  .00005800  00000-0  38209-3 0  9995,2 52987  53.2185  81.5093 0001469 102.6780 257.4377 15.08850419107089,6917.849,95.437,540.73,538.697,0.0
52987.0,STARLINK-4259,PAYLOAD,2024-06-11 23:29:29,15.08851161,0.0001456,53.218,77.9399,101.7822,258.3334,0.00026359,3.911e-05,0.0,0 STARLINK-4259,1 52987U 22076B   24163.97881775  .00003911  00000-0  26359-3 0  9998,2 52987  53.2180  77.9399 0001456 101.7822 258.3334 15.08851161107207,6917.846,95.437,540.719,538.704,0.0
52987.0,STARLINK-4259,PAYLOAD,2024-06-12 21:44:54,15.08836278,0.0001305,53.217,73.7771,84.6202,275.4939,-5.0178e-05,-1.086e-05,0.0,0 STARLINK-4259,1 52987U 22076B   24164.90618197 -.00001086  00000-0 -50178-4 0  9998,2 52987  53.2170  73.7771 0001305  84.6202 275.4939 15.08836278106873,6917.892,95.438,540.66,538.854,0.0
52987.0,STARLINK-4259,PAYLOAD,2024-06-13 04:06:26,15.08835662,0.0001307,53.2169,72.5904,92.5828,267.5314,-5.8177e-05,-1.214e-05,0.0,0 STARLINK-4259,1 52987U 22076B   24165.17114391 -.00001214  00000-0 -58177-4 0  9995,2 52987  53.2169  72.5904 0001307  92.5828 267.5314 15.08835662107382,6917.894,95.438,540.663,538.854,0.0
52987.0,STARLINK-4259,PAYLOAD,2024-06-13 10:27:59,15.08839653,0.0001226,53.2182,71.4019,88.6259,271.4874,7.8093e-06,-1.64e-06,0.0,0 STARLINK-4259,1 52987U 22076B   24165.43610485 -.00000164  00000-0  78093-5 0  9991,2 52987  53.2182  71.4019 0001226  88.6259 271.4874 15.08839653106957,6917.881,95.438,540.595,538.898,0.0
52987.0,STARLINK-4259,PAYLOAD,2024-06-13 21:35:42,15.08831932,0.0001326,53.2194,69.3215,100.2878,259.8264,-1.2234e-05,-4.83e-06,0.0,0 STARLINK-4259,1 52987U 22076B   24165.89979176 -.00000483  00000-0 -12234-4 0  9995,2 52987  53.2194  69.3215 0001326 100.2878 259.8264 15.08831932107027,6917.905,95.438,540.687,538.853,0.0
52987.0,STARLINK-4259,PAYLOAD,2024-06-14 10:18:46,15.08846325,0.0001483,53.2202,66.9424,94.9871,265.1291,8.6326e-05,1.086e-05,0.0,0 STARLINK-4259,1 52987U 22076B   24166.42970089  .00001086  00000-0  86326-4 0  9990,2 52987  53.2202  66.9424 0001483  94.9871 265.1291 15.08846325107109,6917.861,95.437,540.752,538.7,0.0
52987.0,STARLINK-4259,PAYLOAD,2024-06-14 21:26:28,15.08835049,0.0001934,53.2196,64.8614,96.147,263.9742,0.00011148,1.486e-05,0.0,0 STARLINK-4259,1 52987U 22076B   24166.89339070  .00001486  00000-0  11148-3 0  9993,2 52987  53.2196  64.8614 0001934  96.1470 263.9742 15.08835049107174,6917.896,95.438,541.098,538.423,0.0
52987.0,STARLINK-4259,PAYLOAD,2024-06-15 10:09:33,15.08848726,0.0001603,53.2199,62.4797,89.769,270.3486,0.00020595,2.992e-05,0.0,0 STARLINK-4259,1 52987U 22076B   24167.42330014  .00002992  00000-0  20595-3 0  9991,2 52987  53.2199  62.4797 0001603  89.7690 270.3486 15.08848726107250,6917.854,95.437,540.828,538.61,0.0
52987.0,STARLINK-4259,PAYLOAD,2024-06-15 22:52:39,15.08840133,0.0001561,53.2188,60.0985,77.3494,282.7673,2.1085e-05,4.8e-07,0.0,0 STARLINK-4259,1 52987U 22076B   24167.95323213  .00000048  00000-0  21085-4 0  9998,2 52987  53.2188  60.0985 0001561  77.3494 282.7673 15.08840133107337,6917.88,95.438,540.825,538.665,0.0
52987.0,STARLINK-4259,PAYLOAD,2024-06-16 22:43:26,15.08834656,0.0001478,53.219,55.6432,86.3325,273.7836,7.0507e-05,8.34e-06,0.0,0 STARLINK-4259,1 52987U 22076B   24168.94683786  .00000834  00000-0  70507-4 0  9998,2 52987  53.2190  55.6432 0001478  86.3325 273.7836 15.08834656107487,6917.897,95.438,540.784,538.739,0.0
52987.0,STARLINK-4259,PAYLOAD,2024-06-17 22:34:12,15.08846595,0.0001245,53.2184,51.1801,87.6035,272.5099,0.00023341,3.429e-05,0.0,0 STARLINK-4259,1 52987U 22076B   24169.94042716  .00003429  00000-0  23341-3 0  9997,2 52987  53.2184  51.1801 0001245  87.6035 272.5099 15.08846595107635,6917.86,95.437,540.587,538.864,0.0
52987.0,STARLINK-4259,PAYLOAD,2024-06-18 09:41:54,15.08854668,0.0001325,53.2172,49.0977,91.636,268.4783,0.00037128,5.628e-05,0.0,0 STARLINK-4259,1 52987U 22076B   24170.40410589  .00005628  00000-0  37128-3 0  9998,2 52987  53.2172  49.0977 0001325  91.6360 268.4783 15.08854668107709,6917.836,95.437,540.617,538.784,0.0
52987.0,STARLINK-4259,PAYLOAD,2024-06-18 19:14:13,15.08849351,0.0001794,53.2186,47.3106,107.9806,252.1382,0.00025412,3.76e-05,0.0,0 STARLINK-4259,1 52987U 22076B   24170.80154734  .00003760  00000-0  25412-3 0  9997,2 52987  53.2186  47.3106 0001794 107.9806 252.1382 15.08849351108232,6917.852,95.437,540.958,538.476,0.0
52987.0,STARLINK-4259,PAYLOAD,2024-06-18 22:25:00,15.08843989,0.0001401,53.2177,46.7192,88.0741,272.0412,0.00017261,2.461e-05,0.0,0 STARLINK-4259,1 52987U 22076B   24170.93403042  .00002461  00000-0  17261-3 0  9990,2 52987  53.2177  46.7192 0001401  88.0741 272.0412 15.08843989107787,6917.868,95.437,540.702,538.764,0.0
52987.0,STARLINK-4259,PAYLOAD,2024-06-19 22:15:47,15.08842561,0.0001428,53.2182,42.258,88.4686,271.647,-8.8715e-05,-1.7e-05,0.0,0 STARLINK-4259,1 52987U 22076B   24171.92762768 -.00001700  00000-0 -88715-4 0  9993,2 52987  53.2182  42.2580 0001428  88.4686 271.6470 15.08842561107937,6917.873,95.437,540.725,538.75,0.0
52987.0,STARLINK-4259,PAYLOAD,2024-06-20 07:48:05,15.08847022,0.0001395,53.2182,40.4752,85.6039,274.5112,-1.854e-05,-5.83e-06,0.0,0 STARLINK-4259,1 52987U 22076B   24172.32506438 -.00000583  00000-0 -18540-4 0  9995,2 52987  53.2182  40.4752 0001395  85.6039 274.5112 15.08847022107990,6917.859,95.437,540.689,538.759,0.0
52987.0,STARLINK-4259,PAYLOAD,2024-06-20 20:31:11,15.08830086,0.0001453,53.218,38.0967,90.9896,269.1263,-5.3463e-05,-1.138e-05,0.0,0 STARLINK-4259,1 52987U 22076B   24172.85499478 -.00001138  00000-0 -53463-4 0  9998,2 52987  53.2180  38.0967 0001453  90.9896 269.1263 15.08830086108545,6917.911,95.438,540.781,538.771,0.0
52987.0,STARLINK-4259,PAYLOAD,2024-06-21 14:00:25,15.08838138,0.0001499,53.2181,34.827,106.9293,253.1864,0.00011028,1.467e-05,0.0,0 STARLINK-4259,1 52987U 22076B   24173.58363285  .00001467  00000-0  11028-3 0  9998,2 52987  53.2181  34.8270 0001499 106.9293 253.1864 15.08838138108654,6917.886,95.438,540.788,538.714,0.0
52987.0,STARLINK-4259,PAYLOAD,2024-06-21 21:57:21,15.08836068,0.0001379,53.2175,33.3392,95.2318,264.8831,0.00010756,1.424e-05,0.0,0 STARLINK-4259,1 52987U 22076B   24173.91483584  .00001424  00000-0  10756-3 0  9990,2 52987  53.2175  33.3392 0001379  95.2318 264.8831 15.08836068108238,6917.892,95.438,540.711,538.803,0.0
52987.0,STARLINK-4259,PAYLOAD,2024-06-22 13:51:13,15.08836884,0.0001366,53.2175,30.3655,87.5904,272.5245,0.00022861,3.352e-05,0.0,0 STARLINK-4259,1 52987U 22076B   24174.57723862  .00003352  00000-0  22861-3 0  9991,2 52987  53.2175  30.3655 0001366  87.5904 272.5245 15.08836884108330,6917.89,95.438,540.7,538.81,0.0
52987.0,STARLINK-4259,PAYLOAD,2024-06-22 20:12:46,15.08837778,0.0001284,53.2165,29.1747,82.5626,277.5512,0.00016464,2.333e-05,0.0,0 STARLINK-4259,1 52987U 22076B   24174.84219934  .00002333  00000-0  16464-3 0  9991,2 52987  53.2165  29.1747 0001284  82.5626 277.5512 15.08837778108843,6917.887,95.438,540.64,538.864,0.0
